NORAD_CAT_ID,OBJECT_NAME,OBJECT_TYPE,EPOCH,MEAN_MOTION,ECCENTRICITY,INCLINATION,RA_OF_ASC_NODE,ARG_OF_PERICENTER,MEAN_ANOMALY,BSTAR,MEAN_MOTION_DOT,MEAN_MOTION_DDOT,TLE_LINE0,TLE_LINE1,TLE_LINE2,SEMIMAJOR_AXIS,PERIOD,APOGEE,PERIGEE,DECAYED
54175.0,STARLINK-5256,PAYLOAD,2024-08-13 13:19:51,15.08787902,7.85e-05,53.219,57.0325,27.0451,333.0582,-0.00070095,-0.0001141,0.0,0 STARLINK-5256,1 54175U 22141U   24226.55546175 -.00011410  00000-0 -70095-3 0  9999,2 54175  53.2190  57.0325 0000785  27.0451 333.0582 15.08787902 99330,6918.04,95.441,540.448,539.362,0.0
54175.0,STARLINK-5256,PAYLOAD,2024-08-13 19:41:25,15.08811147,0.0001278,53.2146,55.8389,299.1168,60.9696,-0.00015964,-2.826e-05,0.0,0 STARLINK-5256,1 54175U 22141U   24226.82043050 -.00002826  00000-0 -15964-3 0  9998,2 54175  53.2146  55.8389 0001278 299.1168  60.9696 15.08811147 99377,6917.969,95.439,540.718,538.949,0.0
54175.0,STARLINK-5256,PAYLOAD,2024-08-14 05:13:42,15.08811231,0.0002181,53.2202,54.0601,100.5073,259.6165,-0.00025705,-4.374e-05,0.0,0 STARLINK-5256,1 54175U 22141U   24227.21785863 -.00004374  00000-0 -25705-3 0  9991,2 54175  53.2202  54.0601 0002181 100.5073 259.6165 15.08811231 99431,6917.968,95.439,541.342,538.325,0.0
54175.0,STARLINK-5256,PAYLOAD,2024-08-14 21:07:35,15.08839011,0.0001078,53.2171,51.0852,70.0414,290.0694,0.0008494,0.00013256,0.0,0 STARLINK-5256,1 54175U 22141U   24227.88026846  .00013256  00000-0  84940-3 0  9996,2 54175  53.2171  51.0852 0001078  70.0414 290.0694 15.08839011 99538,6917.883,95.438,540.494,539.003,0.0
54175.0,STARLINK-5256,PAYLOAD,2024-08-15 05:04:30,15.08847264,0.0001294,53.2171,49.5985,89.5211,270.5929,0.00086472,0.00013504,0.0,0 STARLINK-5256,1 54175U 22141U   24228.21146738  .00013504  00000-0  86472-3 0  9995,2 54175  53.2171  49.5985 0001294  89.5211 270.5929 15.08847264 99585,6917.858,95.437,540.618,538.828,0.0
54175.0,STARLINK-5256,PAYLOAD,2024-08-16 04:55:16,15.08857485,0.0001226,53.2164,45.138,85.8386,274.2746,0.00016212,2.294e-05,0.0,0 STARLINK-5256,1 54175U 22141U   24229.20505385  .00002294  00000-0  16212-3 0  9991,2 54175  53.2164  45.1380 0001226  85.8386 274.2746 15.08857485 99736,6917.827,95.436,540.54,538.844,0.0
54175.0,STARLINK-5256,PAYLOAD,2024-08-17 20:39:55,15.08845247,0.000128,53.2169,37.7039,86.9087,273.2052,0.00015244,2.139e-05,0.0,0 STARLINK-5256,1 54175U 22141U   24230.86105704  .00002139  00000-0  15244-3 0  9998,2 54175  53.2169  37.7039 0001280  86.9087 273.2052 15.08845247 99988,6917.864,95.437,540.615,538.844,0.0
54175.0,STARLINK-5256,PAYLOAD,2024-08-18 20:30:41,15.08858151,0.0001524,53.2182,33.2433,100.1822,259.9343,0.00048513,7.445e-05,0.0,0 STARLINK-5256,1 54175U 22141U   24231.85465149  .00007445  00000-0  48513-3 0  9990,2 54175  53.2182  33.2433 0001524 100.1822 259.9343 15.08858151100131,6917.825,95.436,540.744,538.636,0.0
54175.0,STARLINK-5256,PAYLOAD,2024-08-19 04:27:37,15.08845975,0.0001726,53.2184,31.759,77.4407,282.6778,0.00018702,2.69e-05,0.0,0 STARLINK-5256,1 54175U 22141U   24232.18585606  .00002690  00000-0  18702-3 0  9992,2 54175  53.2184  31.7590 0001726  77.4407 282.6778 15.08845975100189,6917.862,95.437,540.921,538.533,0.0
54175.0,STARLINK-5256,PAYLOAD,2024-08-19 10:49:10,15.08844085,0.0001692,53.2181,30.5682,94.2409,265.8776,0.00012799,1.75e-05,0.0,0 STARLINK-5256,1 54175U 22141U   24232.45081591  .00001750  00000-0  12799-3 0  9992,2 54175  53.2181  30.5682 0001692  94.2409 265.8776 15.08844085100223,6917.868,95.437,540.903,538.562,0.0
54175.0,STARLINK-5256,PAYLOAD,2024-08-20 10:39:57,15.08844889,0.0001772,53.2176,26.1037,110.1264,249.9919,0.00012706,1.735e-05,0.0,0 STARLINK-5256,1 54175U 22141U   24233.44441390  .00001735  00000-0  12706-3 0  9990,2 54175  53.2176  26.1037 0001772 110.1264 249.9919 15.08844889100378,6917.865,95.437,540.956,538.505,0.0
54175.0,STARLINK-5256,PAYLOAD,2024-08-20 13:50:43,15.08848023,0.0001609,53.2174,25.5101,103.0542,257.063,0.00011286,1.509e-05,0.0,0 STARLINK-5256,1 54175U 22141U   24233.57689248  .00001509  00000-0  11286-3 0  9991,2 54175  53.2174  25.5101 0001609 103.0542 257.0630 15.08848023100396,6917.856,95.437,540.834,538.608,0.0
54175.0,STARLINK-5256,PAYLOAD,2024-08-21 10:30:44,15.0883851,0.000147,53.2181,21.6467,94.3446,265.7714,0.00012089,1.636e-05,0.0,0 STARLINK-5256,1 54175U 22141U   24234.43801733  .00001636  00000-0  12089-3 0  9995,2 54175  53.2181  21.6467 0001470  94.3446 265.7714 15.08838510100521,6917.885,95.438,540.767,538.733,0.0
54175.0,STARLINK-5256,PAYLOAD,2024-08-21 13:41:30,15.08840186,0.000148,53.2186,21.052,96.6958,263.4202,0.00011873,1.602e-05,0.0,0 STARLINK-5256,1 54175U 22141U   24234.57049667  .00001602  00000-0  11873-3 0  9993,2 54175  53.2186  21.0520 0001480  96.6958 263.4202 15.08840186100545,6917.88,95.438,540.769,538.721,0.0
54175.0,STARLINK-5256,PAYLOAD,2024-08-22 02:24:36,15.08826846,0.0001434,53.2188,18.6749,91.3976,268.718,0.00048388,7.419e-05,0.0,0 STARLINK-5256,1 54175U 22141U   24235.10042572  .00007419  00000-0  48388-3 0  9994,2 54175  53.2188  18.6749 0001434  91.3976 268.7180 15.08826846100622,6917.921,95.438,540.778,538.794,0.0
